[{"OBJECT_NAME":"ONEWEB-0596","OBJECT_ID":"2022-166W","EPOCH":"2026-03-09T21:59:26.696544","MEAN_MOTION":13.2182407,"ECCENTRICITY":0.00017012,"INCLINATION":87.9164,"RA_OF_ASC_NODE":263.7798,"ARG_OF_PERICENTER":91.0554,"MEAN_ANOMALY":269.0775,"EPHEMERIS_TYPE":0,"CLASSIFICATION_TYPE":"U","NORAD_CAT_ID":54662,"ELEMENT_SET_NO":999,"REV_AT_EPOCH":15842,"BSTAR":-0.00016422168,"MEAN_MOTION_DOT":-5.5e-7,"MEAN_MOTION_DDOT":0},{"OBJECT_NAME":"DELTA 1 DEB","OBJECT_ID":"1975-052JV","EPOCH":"2026-03-08T10:29:44.410848","MEAN_MOTION":13.40660442,"ECCENTRICITY":0.0110874,"INCLINATION":99.0097,"RA_OF_ASC_NODE":49.2224,"ARG_OF_PERICENTER":268.9438,"MEAN_ANOMALY":244.4381,"EPHEMERIS_TYPE":0,"CLASSIFICATION_TYPE":"U","NORAD_CAT_ID":21969,"ELEMENT_SET_NO":999,"REV_AT_EPOCH":68630,"BSTAR":0.0013952854,"MEAN_MOTION_DOT":7.57e-6,"MEAN_MOTION_DDOT":0}]
